#cP2016  3 18  0  0  0.00000000      96 ORBIT IGb08 HLM  IGS
## 1888 432000.00000000   900.00000000 57465 0.0000000000000
+   32   G01G02G03G04G05G06G07G08G09G10G11G12G13G14G15G16G17
+        G18G19G20G21G22G23G24G25G26G27G28G29G30G31G32  0  0
+          0  0  0  0  0  0  0  0  0  0  0  0  0  0  0  0  0
+          0  0  0  0  0  0  0  0  0  0  0  0  0  0  0  0  0
+          0  0  0  0  0  0  0  0  0  0  0  0  0  0  0  0  0
++         2  2  3  0  2  2  2  2  2  0  2  2  2  3  2  3  2
++         3  2  2  3  2  3  2  3  3  2  2  3  2  3  3  0  0
++         0  0  0  0  0  0  0  0  0  0  0  0  0  0  0  0  0
++         0  0  0  0  0  0  0  0  0  0  0  0  0  0  0  0  0
++         0  0  0  0  0  0  0  0  0  0  0  0  0  0  0  0  0
%c G  cc GPS ccc cccc cccc cccc cccc ccccc ccccc ccccc ccccc
%c cc cc ccc ccc cccc cccc cccc cccc ccccc ccccc ccccc ccccc
%f  1.2500000  1.025000000  0.00000000000  0.000000000000000
%f  0.0000000  0.000000000  0.00000000000  0.000000000000000
%i    0    0    0    0      0      0      0      0         0
%i    0    0    0    0      0      0      0      0         0
/* FINAL ORBIT COMBINATION FROM WEIGHTED AVERAGE OF:        
/* cod emr esa gfz grg jpl mit ngs sio                      
/* REFERENCED TO IGS TIME (IGST) AND TO WEIGHTED MEAN POLE: 
/* PCV:IGS08_1888 OL/AL:FES2004  NONE     Y  ORB:CMB CLK:CMB
*  2016  3 18 22 30  0.00000000
PG01   8623.163808 -19524.743356 -15735.691213     14.760864  7  7  5 106       
PG02 -21912.084235  14173.052311  -3137.519391    599.008291  9  9  5 137       
PG03  -1654.770413 -16614.150492 -20652.248748    -37.620434 12 12  9 101       
PG04  24813.378330   6641.903429   7066.003346 999999.999999
PG05 -18342.886128   6258.750096  18178.478745   -136.460602  8  6  6 106       
PG06 -21395.142834   2114.854728 -15581.430503    162.427917  7  9  5 109       
PG07  -7682.375561 -13068.893175  21926.980020    464.610084  7  6  5 100       
PG08   6921.448398 -21975.049079  13248.326367    -27.979314  7  5  5  92       
PG09  -8320.860018 -23879.457893   8080.098369     92.522200  6  5  5 101       
PG10  24418.812549  10519.220393   -478.816631 999999.999999
PG11   8490.732522 -24110.748771  -7666.812466   -637.198077  7  7  6 123       
PG12  -2537.249412  14898.208723 -21988.555841    372.957256  8  8  5  92       
PG13 -12378.063301  15173.736657  17850.311129     -4.479478  6  7  7 122       
PG14  13970.795057  10569.940624 -19757.518374     -3.292331 11  6 11 121       
PG15  -3336.998910  24314.145790   9577.304406   -302.348267  6  3  5 103       
PG16  18850.951908  -3579.610502  18446.189312    -31.170978  9  8  5  85       
PG17 -13578.985344 -12228.996129 -19014.097947   -202.198546 10  7  8  95       
PG18  18106.345950  16528.028062  11073.127802    495.124478  8  7  9 123       
PG19 -15065.109806    253.607339 -22100.896510   -525.343383  8  8  5 109       
PG20  -2189.543535  15936.591147  20976.612286    400.205287  7  5  5 102       
PG21  11876.558373  11117.045773  21764.145025   -515.419990  9  7  7 118       
PG22  16133.402251  -8849.737878 -18990.499082    379.031345  7  6  7 121       
PG23  -1005.746296 -26184.931413  -2291.899778   -165.281949  9 11  6 128       
PG24 -11157.427889  20147.871753 -13112.243527    -14.096793  8  7  6 104       
PG25  10338.256892  17469.113747 -17348.550656   -136.626688  8  9  7  89       
PG26  24254.479115   2672.584321  10546.754589   -297.695880  9  9  7 100       
PG27  12283.114104 -12669.585122  19776.307032     73.347207  7  6  7 103       
PG28 -23018.995790 -13288.928037   1028.815651    510.043742  9  6  5 115       
PG29   4869.287734  25560.409406   5464.966267    656.034439  8  7  5 124       
PG30 -16834.986401  -6011.496071  19660.654120    108.110375  5  8  5  90       
PG31  22588.033435  -3970.978917 -13599.806713    277.820725 10  7  8 131       
PG32  15111.349458   8307.850737 -20198.195514      9.756609 11  9  8 124       
*  2016  3 18 22 45  0.00000000
PG01  10073.673728 -20384.903794 -13611.590486     14.761923  7  7  5 114       
PG02 -21686.904983  13547.459997  -5915.700539    599.007999 10  9  5 135       
PG03    594.109668 -15758.796540 -21368.825408    -37.624388 12 12  8 101       
PG04  25356.595976   7062.405153   4277.578164 999999.999999
PG05 -20133.543267   5365.869067  16515.978011   -136.457755  9  6  6 106       
PG06 -19998.522316    829.380308 -17445.193268    162.433233  7  9  5 107       
PG07  -5671.194820 -14493.279646  21605.451193    464.608677  6  6  5  82       
PG08   7336.474092 -20386.114921  15401.852771    -27.979894  6  6  6  87       
PG09  -8172.149217 -24681.221659   5375.670974     92.528987  6  5  5 106       
PG10  24224.653704  10713.519827   2369.273053 999999.999999
PG11   9195.554589 -24473.769991  -5074.804259   -637.199306  6  8  6 126       
PG12  -4798.476466  13838.593900 -22284.063753    372.958648  8  8  5  96       
PG13 -12538.223787  13028.090024  19350.693759     -4.481833  5  7  8 106       
PG14  13983.629234  12799.910615 -18414.053721     -3.294571 11  7 10 106       
PG15  -3890.917408  23130.106513  11999.194210   -302.349662  5  4  5  92       
PG16  20611.204171  -2612.354423  16682.946285    -31.168188  9  8  5  90       
PG17 -13652.046900 -14368.518596 -17443.706537   -202.198904 11  6  8 103       
PG18  16776.133568  16306.616971  13347.286162    495.127926  8  7  9 118       
PG19 -15133.784347  -2212.799059 -21908.237102   -525.343505  9  8  6 108       
PG20  -4535.722439  15213.825085  21140.017381    400.207439  7  6  4  98       
PG21  10053.646532  12596.144354  21855.955462   -515.421457  8  6  7  99       
PG22  18077.196690  -7929.713521 -17628.043279    379.025329  7  7  7 130       
PG23   -620.366113 -25784.023840  -5101.219786   -165.283523  8 11  7 127       
PG24 -12377.478238  20810.700172 -10742.452864    -14.097782  8  8  6 117       
PG25   8406.748600  16783.133008 -18985.056510   -136.633029  8  9  7  79       
PG26  25150.216162   3279.908750   7965.190212   -297.708972  9  9  7  97       
PG27  12693.596717 -10374.160213  20839.002401     73.350618  7  6  7  95       
PG28 -22755.391289 -13340.914662   3921.057047    510.046344  9  6  5 114       
PG29   4702.149634  26035.054003   2630.590070    656.034860  8  7  5 126       
PG30 -14965.367307  -7372.010808  20675.054807    108.113888  5  8  5  81       
PG31  21311.044357  -2870.624356 -15720.805492    277.818918 10  7  9 133       
PG32  15311.877558  10543.270612 -18966.732081      9.755991 12  9  9 111       
*  2016  3 18 23  0  0.00000000
PG01  11285.677278 -21154.144373 -11251.677655     14.762858  7  7  5 111       
PG02 -21264.842949  12695.713007  -8588.340993    599.007778 10  9  6 132       
PG03   2941.281264 -15001.745545 -21717.618118    -37.628327 11 13  8 102       
PG04  25623.031274   7339.840766   1416.386121 999999.999999
PG05 -21772.117099   4629.281015  14570.140261   -136.454749  9  6  6 100       
PG06 -18525.100611   -655.457955 -19008.446158    162.438489  8  9  6 114       
PG07  -3779.374202 -15988.710911  20914.964853    464.606947  6  6  6  74       
PG08   7878.966774 -18597.438867  17290.997566    -27.980819  6  6  6  89       
PG09  -8003.339103 -25184.171690   2578.600573     92.535760  7  6  5 118       
PG10  23738.249841  10814.709090   5176.738790 999999.999999
PG11   9750.132400 -24606.515177  -2396.201845   -637.200570  6  8  6 116       
PG12  -7129.667061  12904.786265 -22200.706177    372.959980  8  8  5  83       
PG13 -12825.733015  10741.524175  20515.206148     -4.484434  6  7  8 104       
PG14  14093.578106  14853.060167 -16748.954627     -3.296425 11  8 10  85       
PG15  -4563.526784  21717.853761  14209.518838   -302.351415  6  6  5  97       
PG16  22223.170488  -1833.370356  14635.324652    -31.165693  9  8  5  88       
PG17 -13812.127099 -16302.561810 -15567.738466   -202.199255 11  6  9  92       
PG18  15211.184243  16076.210385  15401.191884    495.131761  8  6  9 120       
PG19 -15332.666188  -4633.658175 -21345.274782   -525.343481 10  9  7 113       
PG20  -6909.967457  14600.988297  20934.591812    400.209315  7  6  4 109       
PG21   8311.958001  14160.624617  21595.827570   -515.422406  7  6  8  92       
PG22  19895.487979  -7152.950613 -15958.961504    379.019283  7  7  7 127       
PG23   -154.802353 -25091.891001  -7820.013739   -165.284963  8 11  7 134       
PG24 -13357.020368  21346.144589  -8186.306146    -14.098282  8  8  6 113       
PG25   6282.181806  16151.221874 -20299.883451   -136.639371  7  9  7  77       
PG26  25792.357095   3743.902512   5246.909957   -297.722039  9  9  7  83       
PG27  13245.323936  -8006.944435  21541.270274     73.354022  7  6  7  98       
PG28 -22201.437258 -13276.917651   6746.680714    510.048758 10  6  5 110       
PG29   4516.328042  26197.582248   -248.927139    656.035301  8  7  5 124       
PG30 -13091.237513  -8883.368470  21333.939303    108.117355  6  7  6  81       
PG31  19920.299612  -1558.275691 -17573.579721    277.817657  9  7  9 128       
PG32  15597.202569  12610.431719 -17408.827738      9.755343 12  9 10  79       
EOF
